IRIDIUM 921             
1 24873U 97034E   25013.56596733  .00253866  00000+0  11973-2 0  9994
2 24873  86.3641 181.4882 0002185 340.4881  19.6312 15.82424518507857
IRIDIUM 26              
1 24903U 97043A   25013.39585826  .00000767  00000+0  25274-3 0  9990
2 24903  86.3992 175.5835 0001808  94.3502 265.7902 14.36910089434510
IRIDIUM 22              
1 24907U 97043E   25013.47783644  .00000709  00000+0  23866-3 0  9992
2 24907  86.3994 178.9507 0002030  91.8748 268.2681 14.35749231434577
DUMMY MASS 1            
1 24925U 97048A   25013.49385462  .00000704  00000+0  75975-4 0  9999
2 24925  86.3348 206.7832 0006149 355.6636   4.4534 14.86731229482140
DUMMY MASS 2            
1 24926U 97048B   25013.49762622  .00000641  00000+0  69333-4 0  9998
2 24926  86.3347 208.3599 0007365   4.8931 355.2364 14.86485132481922
IRIDIUM 33              
1 24946U 97051C   25013.50881944  .00000454  00000+0  15338-3 0  9992
2 24946  86.3876 207.9531 0006642 210.4879 149.5932 14.34720775430562
IRIDIUM 28              
1 24948U 97051E   25013.48805926  .00000622  00000+0  20263-3 0  9997
2 24948  86.3967 206.3175 0001679  99.0639 261.0748 14.37157138431625
